{
  "type": "FeatureCollection",
  "features": [
    {
      "type": "Feature",
      "properties": {
        "norad_id": 39766,
        "name": "ALOS-2",
        "group": "resource",
        "lat": -26.794036548168677,
        "lon": -112.73956171059619,
        "alt_km": 636.9561022704474,
        "timestamp": "2025-12-02T07:10:08.766314+00:00",
        "meta_object_name": "ALOS-2",
        "meta_object_id": "2014-029A",
        "meta_epoch": "2025-12-01T20:29:51.889056",
        "meta_mean_motion": 14.79504813,
        "meta_eccentricity": 0.0001375,
        "meta_inclination": 97.9233,
        "meta_ra_of_asc_node": 70.8552,
        "meta_arg_of_pericenter": 99.0861,
        "meta_mean_anomaly": 261.0506,
        "meta_ephemeris_type": 0,
        "meta_classification_type": "U",
        "meta_norad_cat_id": 39766,
        "meta_element_set_no": 999,
        "meta_rev_at_epoch": 62240,
        "meta_bstar": 0.00029911,
        "meta_mean_motion_dot": 2.185e-05,
        "meta_mean_motion_ddot": 0,
        "tle_line1": "1 39766U 14029A   25335.85407279  .00002185  00000+0  29911-3 0  9997",
        "tle_line2": "2 39766  97.9233  70.8552 0001375  99.0861 261.0506 14.79504813622408"
      },
      "geometry": {
        "type": "Point",
        "coordinates": [
          -112.73956171059619,
          -26.794036548168677
        ]
      }
    },
    {
      "type": "Feature",
      "properties": {
        "norad_id": 40010,
        "name": "KAZEOSAT 2",
        "group": "resource",
        "lat": -80.16628790129326,
        "lon": -48.7806874220059,
        "alt_km": 615.7099580211398,
        "timestamp": "2025-12-02T07:10:08.766325+00:00",
        "meta_object_name": "KAZEOSAT 2",
        "meta_object_id": "2014-033A",
        "meta_epoch": "2025-12-01T20:16:58.876896",
        "meta_mean_motion": 14.85138037,
        "meta_eccentricity": 0.0007196,
        "meta_inclination": 97.5512,
        "meta_ra_of_asc_node": 180.7216,
        "meta_arg_of_pericenter": 247.7182,
        "meta_mean_anomaly": 112.3271,
        "meta_ephemeris_type": 0,
        "meta_classification_type": "U",
        "meta_norad_cat_id": 40010,
        "meta_element_set_no": 999,
        "meta_rev_at_epoch": 61966,
        "meta_bstar": 0.00010684,
        "meta_mean_motion_dot": 8.64e-06,
        "meta_mean_motion_ddot": 0,
        "tle_line1": "1 40010U 14033A   25335.84512589  .00000864  00000+0  10684-3 0  9995",
        "tle_line2": "2 40010  97.5512 180.7216 0007196 247.7182 112.3271 14.85138037619660"
      },
      "geometry": {
        "type": "Point",
        "coordinates": [
          -48.7806874220059,
          -80.16628790129326
        ]
      }
    },
    {
      "type": "Feature",
      "properties": {
        "norad_id": 40011,
        "name": "HODOYOSHI-4",
        "group": "resource",
        "lat": -81.14310170143015,
        "lon": -72.53788279869141,
        "alt_km": 599.5233807800496,
        "timestamp": "2025-12-02T07:10:08.766335+00:00",
        "meta_object_name": "HODOYOSHI-4",
        "meta_object_id": "2014-033B",
        "meta_epoch": "2025-12-01T20:17:31.231104",
        "meta_mean_motion": 14.87415581,
        "meta_eccentricity": 0.0022601,
        "meta_inclination": 97.5418,
        "meta_ra_of_asc_node": 165.2662,
        "meta_arg_of_pericenter": 238.0899,
        "meta_mean_anomaly": 121.812,
        "meta_ephemeris_type": 0,
        "meta_classification_type": "U",
        "meta_norad_cat_id": 40011,
        "meta_element_set_no": 999,
        "meta_rev_at_epoch": 61946,
        "meta_bstar": 0.00019611,
        "meta_mean_motion_dot": 1.73e-05,
        "meta_mean_motion_ddot": 0,
        "tle_line1": "1 40011U 14033B   25335.84550036  .00001730  00000+0  19611-3 0  9997",
        "tle_line2": "2 40011  97.5418 165.2662 0022601 238.0899 121.8120 14.87415581619465"
      },
      "geometry": {
        "type": "Point",
        "coordinates": [
          -72.53788279869141,
          -81.14310170143015
        ]
      }
    },
    {
      "type": "Feature",
      "properties": {
        "norad_id": 40013,
        "name": "DEIMOS-2",
        "group": "resource",
        "lat": -36.24984249127803,
        "lon": 26.81879283115334,
        "alt_km": 595.6786474714081,
        "timestamp": "2025-12-02T07:10:08.766345+00:00",
        "meta_object_name": "DEIMOS-2",
        "meta_object_id": "2014-033D",
        "meta_epoch": "2025-12-01T20:33:01.847232",
        "meta_mean_motion": 14.92890461,
        "meta_eccentricity": 7.39e-05,
        "meta_inclination": 97.6073,
        "meta_ra_of_asc_node": 212.0148,
        "meta_arg_of_pericenter": 79.1479,
        "meta_mean_anomaly": 280.9824,
        "meta_ephemeris_type": 0,
        "meta_classification_type": "U",
        "meta_norad_cat_id": 40013,
        "meta_element_set_no": 999,
        "meta_rev_at_epoch": 60827,
        "meta_bstar": 0.00024304,
        "meta_mean_motion_dot": 2.465e-05,
        "meta_mean_motion_ddot": 0,
        "tle_line1": "1 40013U 14033D   25335.85627138  .00002465  00000+0  24304-3 0  9999",
        "tle_line2": "2 40013  97.6073 212.0148 0000739  79.1479 280.9824 14.92890461608276"
      },
      "geometry": {
        "type": "Point",
        "coordinates": [
          26.81879283115334,
          -36.24984249127803
        ]
      }
    },
    {
      "type": "Feature",
      "properties": {
        "norad_id": 40015,
        "name": "HODOYOSHI-3",
        "group": "resource",
        "lat": -67.84000381654144,
        "lon": 161.77603081155888,
        "alt_km": 599.5319061115142,
        "timestamp": "2025-12-02T07:10:08.766355+00:00",
        "meta_object_name": "HODOYOSHI-3",
        "meta_object_id": "2014-033F",
        "meta_epoch": "2025-12-01T16:55:18.207840",
        "meta_mean_motion": 14.84742912,
        "meta_eccentricity": 0.0031881,
        "meta_inclination": 97.6193,
        "meta_ra_of_asc_node": 142.0202,
        "meta_arg_of_pericenter": 285.7279,
        "meta_mean_anomaly": 74.0421,
        "meta_ephemeris_type": 0,
        "meta_classification_type": "U",
        "meta_norad_cat_id": 40015,
        "meta_element_set_no": 999,
        "meta_rev_at_epoch": 61831,
        "meta_bstar": 0.00022034,
        "meta_mean_motion_dot": 1.831e-05,
        "meta_mean_motion_ddot": 0,
        "tle_line1": "1 40015U 14033F   25335.70507185  .00001831  00000+0  22034-3 0  9998",
        "tle_line2": "2 40015  97.6193 142.0202 0031881 285.7279  74.0421 14.84742912618318"
      },
      "geometry": {
        "type": "Point",
        "coordinates": [
          161.77603081155888,
          -67.84000381654144
        ]
      }
    },
    {
      "type": "Feature",
      "properties": {
        "norad_id": 40053,
        "name": "SPOT 7",
        "group": "resource",
        "lat": -16.046633318583723,
        "lon": -143.7310159363903,
        "alt_km": 695.8784780131118,
        "timestamp": "2025-12-02T07:10:08.766366+00:00",
        "meta_object_name": "SPOT 7",
        "meta_object_id": "2014-034A",
        "meta_epoch": "2025-12-01T20:24:36.768384",
        "meta_mean_motion": 14.60710251,
        "meta_eccentricity": 0.0001508,
        "meta_inclination": 98.0921,
        "meta_ra_of_asc_node": 38.1763,
        "meta_arg_of_pericenter": 97.835,
        "meta_mean_anomaly": 262.3022,
        "meta_ephemeris_type": 0,
        "meta_classification_type": "U",
        "meta_norad_cat_id": 40053,
        "meta_element_set_no": 999,
        "meta_rev_at_epoch": 60832,
        "meta_bstar": 0.00013992,
        "meta_mean_motion_dot": 6.36e-06,
        "meta_mean_motion_ddot": 0,
        "tle_line1": "1 40053U 14034A   25335.85042556  .00000636  00000+0  13992-3 0  9998",
        "tle_line2": "2 40053  98.0921  38.1763 0001508  97.8350 262.3022 14.60710251608320"
      },
      "geometry": {
        "type": "Point",
        "coordinates": [
          -143.7310159363903,
          -16.046633318583723
        ]
      }
    },
    {
      "type": "Feature",
      "properties": {
        "norad_id": 40072,
        "name": "SKYSAT-B",
        "group": "resource",
        "lat": -33.13632093225852,
        "lon": 93.94692597926954,
        "alt_km": 609.5035724190266,
        "timestamp": "2025-12-02T07:10:08.766377+00:00",
        "meta_object_name": "SKYSAT-B",
        "meta_object_id": "2014-037D",
        "meta_epoch": "2025-12-01T20:31:27.742080",
        "meta_mean_motion": 14.87259028,
        "meta_eccentricity": 0.0005259,
        "meta_inclination": 98.3589,
        "meta_ra_of_asc_node": 278.9881,
        "meta_arg_of_pericenter": 184.2176,
        "meta_mean_anomaly": 175.8995,
        "meta_ephemeris_type": 0,
        "meta_classification_type": "U",
        "meta_norad_cat_id": 40072,
        "meta_element_set_no": 999,
        "meta_rev_at_epoch": 61662,
        "meta_bstar": 0.0002629,
        "meta_mean_motion_dot": 2.309e-05,
        "meta_mean_motion_ddot": 0,
        "tle_line1": "1 40072U 14037D   25335.85518220  .00002309  00000+0  26290-3 0  9992",
        "tle_line2": "2 40072  98.3589 278.9881 0005259 184.2176 175.8995 14.87259028616621"
      },
      "geometry": {
        "type": "Point",
        "coordinates": [
          93.94692597926954,
          -33.13632093225852
        ]
      }
    }
  ]
}